[{"OBJECT_NAME":"ICESAT-2","OBJECT_ID":"2018-070A","EPOCH":"2026-03-09T22:54:12.225888","MEAN_MOTION":15.28328617,"ECCENTRICITY":0.00038245,"INCLINATION":91.9993,"RA_OF_ASC_NODE":264.2397,"ARG_OF_PERICENTER":123.8941,"MEAN_ANOMALY":236.2673,"EPHEMERIS_TYPE":0,"CLASSIFICATION_TYPE":"U","NORAD_CAT_ID":43613,"ELEMENT_SET_NO":999,"REV_AT_EPOCH":41730,"BSTAR":0.00014022643,"MEAN_MOTION_DOT":3.87e-5,"MEAN_MOTION_DDOT":0},{"OBJECT_NAME":"STARLINK-34083","OBJECT_ID":"2025-095U","EPOCH":"2026-03-09T14:54:17.290944","MEAN_MOTION":15.27606861,"ECCENTRICITY":0.0003141,"INCLINATION":43.0061,"RA_OF_ASC_NODE":176.9324,"ARG_OF_PERICENTER":299.8371,"MEAN_ANOMALY":60.2168,"EPHEMERIS_TYPE":0,"CLASSIFICATION_TYPE":"U","NORAD_CAT_ID":63908,"ELEMENT_SET_NO":999,"REV_AT_EPOCH":4776,"BSTAR":0.0010661,"MEAN_MOTION_DOT":0.00029217,"MEAN_MOTION_DDOT":0}]
